[
    {
        "Altitude(m)": 622205.8391693305,
        "Argument of Periapsis(deg)": 0.0,
        "Eccentricity": 0.0,
        "Inclination(deg)": 60.0,
        "Latitude(deg)": -52.16235724827168,
        "Longitude(deg)": 52.70050432921231,
        "Mean Anomaly(deg)": -114.54549999999998,
        "RAAN(deg)": 285.0,
        "Satellite Name": "Test1 1269",
        "Satellite Number": 1269,
        "Semi-Major Axis(m)": 6980739.136638005,
        "Time(s)": 0
    },
    {
        "Altitude(m)": 622344.7453830161,
        "Argument of Periapsis(deg)": 0.00010418945913296404,
        "Eccentricity": 0.0,
        "Inclination(deg)": 60.0,
        "Latitude(deg)": -52.51993568682765,
        "Longitude(deg)": 53.481716727861794,
        "Mean Anomaly(deg)": -113.9253938545381,
        "RAAN(deg)": 284.9995799508602,
        "Satellite Name": "Test1 1269",
        "Satellite Number": 1269,
        "Semi-Major Axis(m)": 6980739.136638005,
        "Time(s)": 10
    },
    {
        "Altitude(m)": 622480.807948532,
        "Argument of Periapsis(deg)": 0.0002083789182659281,
        "Eccentricity": 0.0,
        "Inclination(deg)": 60.0,
        "Latitude(deg)": -52.87167751035697,
        "Longitude(deg)": 54.27626119398466,
        "Mean Anomaly(deg)": -113.30528770907637,
        "RAAN(deg)": 284.9991599017205,
        "Satellite Name": "Test1 1269",
        "Satellite Number": 1269,
        "Semi-Major Axis(m)": 6980739.136638005,
        "Time(s)": 20
    },
    {
        "Altitude(m)": 622613.9736346634,
        "Argument of Periapsis(deg)": 0.00031256837739889213,
        "Eccentricity": 0.0,
        "Inclination(deg)": 60.0,
        "Latitude(deg)": -53.21741485843156,
        "Longitude(deg)": 55.084298691922186,
        "Mean Anomaly(deg)": -112.68518156361445,
        "RAAN(deg)": 284.9987398525808,
        "Satellite Name": "Test1 1269",
        "Satellite Number": 1269,
        "Semi-Major Axis(m)": 6980739.136638005,
        "Time(s)": 30
    },
    {
        "Altitude(m)": 622744.1903204273,
        "Argument of Periapsis(deg)": 0.0004167578365318562,
        "Eccentricity": 0.0,
        "Inclination(deg)": 60.0,
        "Latitude(deg)": -53.55697646378658,
        "Longitude(deg)": 55.905978562715696,
        "Mean Anomaly(deg)": -112.06507541815272,
        "RAAN(deg)": 284.998319803441,
        "Satellite Name": "Test1 1269",
        "Satellite Number": 1269,
        "Semi-Major Axis(m)": 6980739.136638005,
        "Time(s)": 40
    },
    {
        "Altitude(m)": 622871.4070173086,
        "Argument of Periapsis(deg)": 0.0005209472956648203,
        "Eccentricity": 0.0,
        "Inclination(deg)": 60.0,
        "Latitude(deg)": -53.89018777508457,
        "Longitude(deg)": 56.74143612762131,
        "Mean Anomaly(deg)": -111.44496927269084,
        "RAAN(deg)": 284.9978997543013,
        "Satellite Name": "Test1 1269",
        "Satellite Number": 1269,
        "Semi-Major Axis(m)": 6980739.136638005,
        "Time(s)": 50
    },
    {
        "Altitude(m)": 622995.5738910178,
        "Argument of Periapsis(deg)": 0.0006251367547977843,
        "Eccentricity": 0.0,
        "Inclination(deg)": 60.0,
        "Latitude(deg)": -54.21687110366211,
        "Longitude(deg)": 57.590791740888996,
        "Mean Anomaly(deg)": -110.8248631272291,
        "RAAN(deg)": 284.99747970516154,
        "Satellite Name": "Test1 1269",
        "Satellite Number": 1269,
        "Semi-Major Axis(m)": 6980739.136638005,
        "Time(s)": 60
    },
    {
        "Altitude(m)": 623116.6422827127,
        "Argument of Periapsis(deg)": 0.0007293262139307483,
        "Eccentricity": 0.0,
        "Inclination(deg)": 60.0,
        "Latitude(deg)": -54.53684579587863,
        "Longitude(deg)": 58.45414978330156,
        "Mean Anomaly(deg)": -110.20475698176719,
        "RAAN(deg)": 284.9970596560218,
        "Satellite Name": "Test1 1269",
        "Satellite Number": 1269,
        "Semi-Major Axis(m)": 6980739.136638005,
        "Time(s)": 70
    },
    {
        "Altitude(m)": 623234.5647297228,
        "Argument of Periapsis(deg)": 0.0008335156730637124,
        "Eccentricity": 0.0,
        "Inclination(deg)": 60.0,
        "Latitude(deg)": -54.849928432640354,
        "Longitude(deg)": 59.331596089244805,
        "Mean Anomaly(deg)": -109.58465083630546,
        "RAAN(deg)": 284.99663960688207,
        "Satellite Name": "Test1 1269",
        "Satellite Number": 1269,
        "Semi-Major Axis(m)": 6980739.136638005,
        "Time(s)": 80
    },
    {
        "Altitude(m)": 623349.2949857642,
        "Argument of Periapsis(deg)": 0.0009377051321966765,
        "Eccentricity": 0.0,
        "Inclination(deg)": 60.0,
        "Latitude(deg)": -55.15593305760394,
        "Longitude(deg)": 60.223196840104485,
        "Mean Anomaly(deg)": -108.96454469084358,
        "RAAN(deg)": 284.9962195577423,
        "Satellite Name": "Test1 1269",
        "Satellite Number": 1269,
        "Semi-Major Axis(m)": 6980739.136638005,
        "Time(s)": 90
    },
    {
        "Altitude(m)": 623460.7880405823,
        "Argument of Periapsis(deg)": 0.0010418945913296407,
        "Eccentricity": 0.0,
        "Inclination(deg)": 60.0,
        "Latitude(deg)": -55.45467143546546,
        "Longitude(deg)": 61.12899741966979,
        "Mean Anomaly(deg)": -108.34443854538173,
        "RAAN(deg)": 284.99579950860254,
        "Satellite Name": "Test1 1269",
        "Satellite Number": 1269,
        "Semi-Major Axis(m)": 6980739.136638005,
        "Time(s)": 100
    },
    {
        "Altitude(m)": 623569.0001391087,
        "Argument of Periapsis(deg)": 0.0011460840504626045,
        "Eccentricity": 0.0,
        "Inclination(deg)": 60.0,
        "Latitude(deg)": -55.745953341613074,
        "Longitude(deg)": 62.04901972883331,
        "Mean Anomaly(deg)": -107.72433239991993,
        "RAAN(deg)": 284.99537945946287,
        "Satellite Name": "Test1 1269",
        "Satellite Number": 1269,
        "Semi-Major Axis(m)": 6980739.136638005,
        "Time(s)": 110
    },
    {
        "Altitude(m)": 623673.8888000206,
        "Argument of Periapsis(deg)": 0.0012502735095955685,
        "Eccentricity": 0.0,
        "Inclination(deg)": 60.0,
        "Latitude(deg)": -56.02958688424264,
        "Longitude(deg)": 62.9832609971562,
        "Mean Anomaly(deg)": -107.10422625445808,
        "RAAN(deg)": 284.9949594103231,
        "Satellite Name": "Test1 1269",
        "Satellite Number": 1269,
        "Semi-Major Axis(m)": 6980739.136638005,
        "Time(s)": 120
    },
    {
        "Altitude(m)": 623775.412833801,
        "Argument of Periapsis(deg)": 0.0013544629687285324,
        "Eccentricity": 0.0,
        "Inclination(deg)": 60.0,
        "Latitude(deg)": -56.30537885983497,
        "Longitude(deg)": 63.931692591984856,
        "Mean Anomaly(deg)": -106.48412010899622,
        "RAAN(deg)": 284.99453936118334,
        "Satellite Name": "Test1 1269",
        "Satellite Number": 1269,
        "Semi-Major Axis(m)": 6980739.136638005,
        "Time(s)": 130
    },
    {
        "Altitude(m)": 623873.5323601922,
        "Argument of Periapsis(deg)": 0.0014586524278614966,
        "Eccentricity": 0.0,
        "Inclination(deg)": 60.0,
        "Latitude(deg)": -56.57313514264006,
        "Longitude(deg)": 64.89425732755242,
        "Mean Anomaly(deg)": -105.86401396353438,
        "RAAN(deg)": 284.99411931204355,
        "Satellite Name": "Test1 1269",
        "Satellite Number": 1269,
        "Semi-Major Axis(m)": 6980739.136638005,
        "Time(s)": 140
    },
    {
        "Altitude(m)": 623968.2088251278,
        "Argument of Periapsis(deg)": 0.0015628418869944607,
        "Eccentricity": 0.0,
        "Inclination(deg)": 60.0,
        "Latitude(deg)": -56.832661108516746,
        "Longitude(deg)": 65.87086831684239,
        "Mean Anomaly(deg)": -105.24390781807257,
        "RAAN(deg)": 284.9936992629039,
        "Satellite Name": "Test1 1269",
        "Satellite Number": 1269,
        "Semi-Major Axis(m)": 6980739.136638005,
        "Time(s)": 150
    },
    {
        "Altitude(m)": 624059.4050170558,
        "Argument of Periapsis(deg)": 0.0016670313461274247,
        "Eccentricity": 0.0,
        "Inclination(deg)": 60.0,
        "Latitude(deg)": -57.08376209314117,
        "Longitude(deg)": 66.86140787205922,
        "Mean Anomaly(deg)": -104.62380167261072,
        "RAAN(deg)": 284.99327921376414,
        "Satellite Name": "Test1 1269",
        "Satellite Number": 1269,
        "Semi-Major Axis(m)": 6980739.136638005,
        "Time(s)": 160
    },
    {
        "Altitude(m)": 624147.0850827076,
        "Argument of Periapsis(deg)": 0.0017712208052603888,
        "Eccentricity": 0.0,
        "Inclination(deg)": 60.0,
        "Latitude(deg)": -57.3262438842154,
        "Longitude(deg)": 67.8657249611277,
        "Mean Anomaly(deg)": -104.00369552714886,
        "RAAN(deg)": 284.99285916462435,
        "Satellite Name": "Test1 1269",
        "Satellite Number": 1269,
        "Semi-Major Axis(m)": 6980739.136638005,
        "Time(s)": 170
    },
    {
        "Altitude(m)": 624231.2145422681,
        "Argument of Periapsis(deg)": 0.001875410264393353,
        "Eccentricity": 0.0,
        "Inclination(deg)": 60.0,
        "Latitude(deg)": -57.55991324687848,
        "Longitude(deg)": 68.88363426767046,
        "Mean Anomaly(deg)": -103.38358938168702,
        "RAAN(deg)": 284.9924391154846,
        "Satellite Name": "Test1 1269",
        "Satellite Number": 1269,
        "Semi-Major Axis(m)": 6980739.136638005,
        "Time(s)": 180
    },
    {
        "Altitude(m)": 624311.7603039847,
        "Argument of Periapsis(deg)": 0.0019795997235263173,
        "Eccentricity": 0.0,
        "Inclination(deg)": 60.0,
        "Latitude(deg)": -57.78457848106114,
        "Longitude(deg)": 69.91491536451264,
        "Mean Anomaly(deg)": -102.76348323622521,
        "RAAN(deg)": 284.99201906634494,
        "Satellite Name": "Test1 1269",
        "Satellite Number": 1269,
        "Semi-Major Axis(m)": 6980739.136638005,
        "Time(s)": 190
    }
]